<?xml version="1.0" encoding="UTF-8"?>
<gpx version="1.1" creator="La Chensinoise - lachensinoise.fr" xmlns="http://www.topografix.com/GPX/1/1" xmlns:xsi="http://www.w3.org/2001/XMLSchema-instance" xsi:schemaLocation="http://www.topografix.com/GPX/1/1 http://www.topografix.com/GPX/1/1/gpx.xsd">
  <metadata>
    <name>La Chensinoise - 10 km de Chens-sur-Léman</name>
    <desc>Parcours officiel de La Chensinoise : 10.01 km, D+ 95 m. Source : Openrunner, parcours n° 25395988.</desc>
    <link href="https://www.openrunner.com/route-details/25395988"><text>Parcours sur Openrunner</text></link>
  </metadata>
  <wpt lat="46.32403" lon="6.26639"><ele>418.0</ele><name>Départ</name></wpt>
  <wpt lat="46.32294" lon="6.26558"><ele>416.0</ele><name>Arrivée</name></wpt>
  <trk>
    <name>La Chensinoise - 10 km</name>
    <type>running</type>
    <trkseg>
      <trkpt lat="46.32403" lon="6.26639"><ele>418.0</ele></trkpt>
      <trkpt lat="46.32401" lon="6.26642"><ele>418.0</ele></trkpt>
      <trkpt lat="46.32384" lon="6.26684"><ele>418.0</ele></trkpt>
      <trkpt lat="46.32378" lon="6.26698"><ele>418.0</ele></trkpt>
      <trkpt lat="46.32364" lon="6.26734"><ele>418.0</ele></trkpt>
      <trkpt lat="46.32359" lon="6.26747"><ele>418.0</ele></trkpt>
      <trkpt lat="46.32338" lon="6.26799"><ele>418.0</ele></trkpt>
      <trkpt lat="46.32328" lon="6.26821"><ele>418.0</ele></trkpt>
      <trkpt lat="46.32325" lon="6.26827"><ele>418.0</ele></trkpt>
      <trkpt lat="46.32324" lon="6.26829"><ele>418.0</ele></trkpt>
      <trkpt lat="46.32318" lon="6.26842"><ele>418.0</ele></trkpt>
      <trkpt lat="46.32317" lon="6.26849"><ele>418.0</ele></trkpt>
      <trkpt lat="46.32318" lon="6.26860"><ele>418.0</ele></trkpt>
      <trkpt lat="46.32318" lon="6.26861"><ele>418.0</ele></trkpt>
      <trkpt lat="46.32358" lon="6.26848"><ele>418.0</ele></trkpt>
      <trkpt lat="46.32368" lon="6.26844"><ele>418.0</ele></trkpt>
      <trkpt lat="46.32371" lon="6.26843"><ele>418.0</ele></trkpt>
      <trkpt lat="46.32377" lon="6.26841"><ele>418.0</ele></trkpt>
      <trkpt lat="46.32381" lon="6.26839"><ele>418.0</ele></trkpt>
      <trkpt lat="46.32383" lon="6.26839"><ele>418.0</ele></trkpt>
      <trkpt lat="46.32391" lon="6.26836"><ele>418.0</ele></trkpt>
      <trkpt lat="46.32392" lon="6.26844"><ele>418.0</ele></trkpt>
      <trkpt lat="46.32394" lon="6.26848"><ele>418.0</ele></trkpt>
      <trkpt lat="46.32396" lon="6.26851"><ele>418.0</ele></trkpt>
      <trkpt lat="46.32410" lon="6.26867"><ele>418.0</ele></trkpt>
      <trkpt lat="46.32413" lon="6.26870"><ele>418.0</ele></trkpt>
      <trkpt lat="46.32421" lon="6.26878"><ele>418.0</ele></trkpt>
      <trkpt lat="46.32447" lon="6.26904"><ele>418.0</ele></trkpt>
      <trkpt lat="46.32452" lon="6.26909"><ele>418.0</ele></trkpt>
      <trkpt lat="46.32484" lon="6.26943"><ele>418.0</ele></trkpt>
      <trkpt lat="46.32487" lon="6.26947"><ele>418.0</ele></trkpt>
      <trkpt lat="46.32495" lon="6.26957"><ele>418.0</ele></trkpt>
      <trkpt lat="46.32506" lon="6.26968"><ele>418.0</ele></trkpt>
      <trkpt lat="46.32536" lon="6.26998"><ele>418.0</ele></trkpt>
      <trkpt lat="46.32561" lon="6.27025"><ele>418.2</ele></trkpt>
      <trkpt lat="46.32573" lon="6.27037"><ele>418.4</ele></trkpt>
      <trkpt lat="46.32574" lon="6.27039"><ele>418.4</ele></trkpt>
      <trkpt lat="46.32592" lon="6.27061"><ele>418.6</ele></trkpt>
      <trkpt lat="46.32598" lon="6.27069"><ele>418.7</ele></trkpt>
      <trkpt lat="46.32614" lon="6.27090"><ele>419.0</ele></trkpt>
      <trkpt lat="46.32620" lon="6.27100"><ele>419.0</ele></trkpt>
      <trkpt lat="46.32629" lon="6.27115"><ele>419.0</ele></trkpt>
      <trkpt lat="46.32633" lon="6.27112"><ele>419.0</ele></trkpt>
      <trkpt lat="46.32635" lon="6.27112"><ele>419.0</ele></trkpt>
      <trkpt lat="46.32637" lon="6.27113"><ele>419.0</ele></trkpt>
      <trkpt lat="46.32639" lon="6.27116"><ele>419.0</ele></trkpt>
      <trkpt lat="46.32639" lon="6.27119"><ele>419.0</ele></trkpt>
      <trkpt lat="46.32638" lon="6.27124"><ele>419.0</ele></trkpt>
      <trkpt lat="46.32645" lon="6.27130"><ele>419.0</ele></trkpt>
      <trkpt lat="46.32660" lon="6.27148"><ele>419.0</ele></trkpt>
      <trkpt lat="46.32702" lon="6.27199"><ele>419.7</ele></trkpt>
      <trkpt lat="46.32703" lon="6.27200"><ele>419.7</ele></trkpt>
      <trkpt lat="46.32707" lon="6.27205"><ele>419.8</ele></trkpt>
      <trkpt lat="46.32714" lon="6.27216"><ele>420.1</ele></trkpt>
      <trkpt lat="46.32718" lon="6.27229"><ele>420.3</ele></trkpt>
      <trkpt lat="46.32722" lon="6.27245"><ele>420.5</ele></trkpt>
      <trkpt lat="46.32730" lon="6.27266"><ele>420.9</ele></trkpt>
      <trkpt lat="46.32750" lon="6.27316"><ele>421.8</ele></trkpt>
      <trkpt lat="46.32751" lon="6.27320"><ele>421.9</ele></trkpt>
      <trkpt lat="46.32753" lon="6.27325"><ele>421.9</ele></trkpt>
      <trkpt lat="46.32754" lon="6.27328"><ele>422.0</ele></trkpt>
      <trkpt lat="46.32764" lon="6.27353"><ele>422.4</ele></trkpt>
      <trkpt lat="46.32776" lon="6.27379"><ele>422.9</ele></trkpt>
      <trkpt lat="46.32780" lon="6.27386"><ele>423.1</ele></trkpt>
      <trkpt lat="46.32808" lon="6.27440"><ele>424.6</ele></trkpt>
      <trkpt lat="46.32806" lon="6.27445"><ele>424.8</ele></trkpt>
      <trkpt lat="46.32808" lon="6.27451"><ele>424.9</ele></trkpt>
      <trkpt lat="46.32790" lon="6.27482"><ele>425.9</ele></trkpt>
      <trkpt lat="46.32618" lon="6.27765"><ele>428.2</ele></trkpt>
      <trkpt lat="46.32569" lon="6.27846"><ele>427.3</ele></trkpt>
      <trkpt lat="46.32559" lon="6.27865"><ele>427.1</ele></trkpt>
      <trkpt lat="46.32552" lon="6.27846"><ele>427.0</ele></trkpt>
      <trkpt lat="46.32540" lon="6.27797"><ele>426.6</ele></trkpt>
      <trkpt lat="46.32536" lon="6.27785"><ele>426.5</ele></trkpt>
      <trkpt lat="46.32530" lon="6.27774"><ele>426.4</ele></trkpt>
      <trkpt lat="46.32509" lon="6.27742"><ele>426.0</ele></trkpt>
      <trkpt lat="46.32500" lon="6.27727"><ele>425.9</ele></trkpt>
      <trkpt lat="46.32485" lon="6.27693"><ele>425.6</ele></trkpt>
      <trkpt lat="46.32475" lon="6.27677"><ele>425.4</ele></trkpt>
      <trkpt lat="46.32466" lon="6.27664"><ele>425.3</ele></trkpt>
      <trkpt lat="46.32458" lon="6.27655"><ele>425.1</ele></trkpt>
      <trkpt lat="46.32439" lon="6.27638"><ele>424.9</ele></trkpt>
      <trkpt lat="46.32426" lon="6.27623"><ele>424.7</ele></trkpt>
      <trkpt lat="46.32386" lon="6.27573"><ele>424.1</ele></trkpt>
      <trkpt lat="46.32375" lon="6.27557"><ele>424.0</ele></trkpt>
      <trkpt lat="46.32352" lon="6.27585"><ele>424.4</ele></trkpt>
      <trkpt lat="46.32341" lon="6.27594"><ele>424.5</ele></trkpt>
      <trkpt lat="46.32336" lon="6.27598"><ele>424.6</ele></trkpt>
      <trkpt lat="46.32322" lon="6.27603"><ele>424.7</ele></trkpt>
      <trkpt lat="46.32318" lon="6.27604"><ele>424.8</ele></trkpt>
      <trkpt lat="46.32267" lon="6.27615"><ele>425.4</ele></trkpt>
      <trkpt lat="46.32251" lon="6.27619"><ele>425.5</ele></trkpt>
      <trkpt lat="46.32210" lon="6.27634"><ele>426.0</ele></trkpt>
      <trkpt lat="46.32163" lon="6.27648"><ele>426.0</ele></trkpt>
      <trkpt lat="46.32100" lon="6.27687"><ele>426.3</ele></trkpt>
      <trkpt lat="46.32089" lon="6.27698"><ele>426.5</ele></trkpt>
      <trkpt lat="46.32078" lon="6.27714"><ele>426.6</ele></trkpt>
      <trkpt lat="46.32031" lon="6.27788"><ele>427.0</ele></trkpt>
      <trkpt lat="46.32020" lon="6.27804"><ele>427.0</ele></trkpt>
      <trkpt lat="46.32005" lon="6.27822"><ele>427.0</ele></trkpt>
      <trkpt lat="46.31996" lon="6.27829"><ele>427.0</ele></trkpt>
      <trkpt lat="46.31981" lon="6.27838"><ele>427.1</ele></trkpt>
      <trkpt lat="46.31928" lon="6.27739"><ele>428.0</ele></trkpt>
      <trkpt lat="46.31920" lon="6.27728"><ele>428.2</ele></trkpt>
      <trkpt lat="46.31909" lon="6.27718"><ele>428.3</ele></trkpt>
      <trkpt lat="46.31896" lon="6.27710"><ele>428.5</ele></trkpt>
      <trkpt lat="46.31880" lon="6.27704"><ele>428.7</ele></trkpt>
      <trkpt lat="46.31842" lon="6.27695"><ele>428.9</ele></trkpt>
      <trkpt lat="46.31834" lon="6.27691"><ele>428.8</ele></trkpt>
      <trkpt lat="46.31825" lon="6.27684"><ele>428.7</ele></trkpt>
      <trkpt lat="46.31817" lon="6.27675"><ele>428.6</ele></trkpt>
      <trkpt lat="46.31741" lon="6.27574"><ele>426.9</ele></trkpt>
      <trkpt lat="46.31722" lon="6.27548"><ele>426.3</ele></trkpt>
      <trkpt lat="46.31710" lon="6.27527"><ele>425.9</ele></trkpt>
      <trkpt lat="46.31640" lon="6.27392"><ele>422.0</ele></trkpt>
      <trkpt lat="46.31631" lon="6.27373"><ele>421.4</ele></trkpt>
      <trkpt lat="46.31625" lon="6.27357"><ele>421.0</ele></trkpt>
      <trkpt lat="46.31622" lon="6.27350"><ele>420.8</ele></trkpt>
      <trkpt lat="46.31590" lon="6.27214"><ele>418.4</ele></trkpt>
      <trkpt lat="46.31572" lon="6.27132"><ele>418.0</ele></trkpt>
      <trkpt lat="46.31554" lon="6.27037"><ele>418.0</ele></trkpt>
      <trkpt lat="46.31549" lon="6.27015"><ele>418.0</ele></trkpt>
      <trkpt lat="46.31546" lon="6.27008"><ele>418.0</ele></trkpt>
      <trkpt lat="46.31543" lon="6.27001"><ele>418.0</ele></trkpt>
      <trkpt lat="46.31537" lon="6.26991"><ele>418.0</ele></trkpt>
      <trkpt lat="46.31454" lon="6.26911"><ele>418.8</ele></trkpt>
      <trkpt lat="46.31439" lon="6.26884"><ele>419.0</ele></trkpt>
      <trkpt lat="46.31563" lon="6.26731"><ele>419.2</ele></trkpt>
      <trkpt lat="46.31588" lon="6.26706"><ele>418.7</ele></trkpt>
      <trkpt lat="46.31599" lon="6.26694"><ele>418.4</ele></trkpt>
      <trkpt lat="46.31605" lon="6.26687"><ele>418.2</ele></trkpt>
      <trkpt lat="46.31624" lon="6.26669"><ele>417.7</ele></trkpt>
      <trkpt lat="46.31632" lon="6.26661"><ele>417.5</ele></trkpt>
      <trkpt lat="46.31642" lon="6.26657"><ele>417.2</ele></trkpt>
      <trkpt lat="46.31647" lon="6.26655"><ele>417.1</ele></trkpt>
      <trkpt lat="46.31652" lon="6.26655"><ele>417.0</ele></trkpt>
      <trkpt lat="46.31660" lon="6.26656"><ele>416.8</ele></trkpt>
      <trkpt lat="46.31663" lon="6.26658"><ele>416.8</ele></trkpt>
      <trkpt lat="46.31672" lon="6.26664"><ele>416.5</ele></trkpt>
      <trkpt lat="46.31674" lon="6.26669"><ele>416.5</ele></trkpt>
      <trkpt lat="46.31678" lon="6.26672"><ele>416.4</ele></trkpt>
      <trkpt lat="46.31682" lon="6.26673"><ele>416.3</ele></trkpt>
      <trkpt lat="46.31686" lon="6.26672"><ele>416.2</ele></trkpt>
      <trkpt lat="46.31693" lon="6.26673"><ele>416.0</ele></trkpt>
      <trkpt lat="46.31698" lon="6.26675"><ele>415.9</ele></trkpt>
      <trkpt lat="46.31699" lon="6.26675"><ele>415.9</ele></trkpt>
      <trkpt lat="46.31700" lon="6.26673"><ele>415.8</ele></trkpt>
      <trkpt lat="46.31701" lon="6.26670"><ele>415.8</ele></trkpt>
      <trkpt lat="46.31701" lon="6.26668"><ele>415.8</ele></trkpt>
      <trkpt lat="46.31703" lon="6.26666"><ele>415.7</ele></trkpt>
      <trkpt lat="46.31703" lon="6.26663"><ele>415.7</ele></trkpt>
      <trkpt lat="46.31701" lon="6.26653"><ele>415.5</ele></trkpt>
      <trkpt lat="46.31701" lon="6.26642"><ele>415.3</ele></trkpt>
      <trkpt lat="46.31699" lon="6.26638"><ele>415.3</ele></trkpt>
      <trkpt lat="46.31696" lon="6.26633"><ele>415.2</ele></trkpt>
      <trkpt lat="46.31702" lon="6.26623"><ele>414.9</ele></trkpt>
      <trkpt lat="46.31709" lon="6.26614"><ele>414.7</ele></trkpt>
      <trkpt lat="46.31718" lon="6.26607"><ele>414.5</ele></trkpt>
      <trkpt lat="46.31724" lon="6.26603"><ele>414.4</ele></trkpt>
      <trkpt lat="46.31740" lon="6.26597"><ele>414.0</ele></trkpt>
      <trkpt lat="46.31763" lon="6.26590"><ele>413.5</ele></trkpt>
      <trkpt lat="46.31825" lon="6.26580"><ele>412.5</ele></trkpt>
      <trkpt lat="46.31845" lon="6.26571"><ele>412.3</ele></trkpt>
      <trkpt lat="46.31861" lon="6.26560"><ele>412.1</ele></trkpt>
      <trkpt lat="46.32007" lon="6.26427"><ele>410.2</ele></trkpt>
      <trkpt lat="46.32100" lon="6.26341"><ele>408.9</ele></trkpt>
      <trkpt lat="46.32116" lon="6.26328"><ele>408.5</ele></trkpt>
      <trkpt lat="46.32137" lon="6.26316"><ele>408.0</ele></trkpt>
      <trkpt lat="46.32192" lon="6.26291"><ele>406.5</ele></trkpt>
      <trkpt lat="46.32207" lon="6.26284"><ele>405.8</ele></trkpt>
      <trkpt lat="46.32215" lon="6.26278"><ele>405.4</ele></trkpt>
      <trkpt lat="46.32224" lon="6.26270"><ele>404.9</ele></trkpt>
      <trkpt lat="46.32232" lon="6.26260"><ele>404.5</ele></trkpt>
      <trkpt lat="46.32281" lon="6.26178"><ele>400.2</ele></trkpt>
      <trkpt lat="46.32312" lon="6.26116"><ele>396.7</ele></trkpt>
      <trkpt lat="46.32363" lon="6.25966"><ele>389.3</ele></trkpt>
      <trkpt lat="46.32372" lon="6.25949"><ele>388.5</ele></trkpt>
      <trkpt lat="46.32369" lon="6.25915"><ele>387.2</ele></trkpt>
      <trkpt lat="46.32368" lon="6.25887"><ele>386.1</ele></trkpt>
      <trkpt lat="46.32367" lon="6.25862"><ele>385.1</ele></trkpt>
      <trkpt lat="46.32362" lon="6.25745"><ele>380.9</ele></trkpt>
      <trkpt lat="46.32362" lon="6.25722"><ele>380.5</ele></trkpt>
      <trkpt lat="46.32361" lon="6.25681"><ele>379.9</ele></trkpt>
      <trkpt lat="46.32360" lon="6.25676"><ele>379.8</ele></trkpt>
      <trkpt lat="46.32357" lon="6.25652"><ele>379.4</ele></trkpt>
      <trkpt lat="46.32355" lon="6.25644"><ele>379.3</ele></trkpt>
      <trkpt lat="46.32379" lon="6.25633"><ele>379.0</ele></trkpt>
      <trkpt lat="46.32388" lon="6.25641"><ele>379.0</ele></trkpt>
      <trkpt lat="46.32435" lon="6.25660"><ele>379.0</ele></trkpt>
      <trkpt lat="46.32455" lon="6.25686"><ele>379.1</ele></trkpt>
      <trkpt lat="46.32457" lon="6.25690"><ele>379.1</ele></trkpt>
      <trkpt lat="46.32474" lon="6.25722"><ele>379.4</ele></trkpt>
      <trkpt lat="46.32501" lon="6.25763"><ele>379.9</ele></trkpt>
      <trkpt lat="46.32525" lon="6.25779"><ele>380.3</ele></trkpt>
      <trkpt lat="46.32525" lon="6.25786"><ele>380.4</ele></trkpt>
      <trkpt lat="46.32499" lon="6.25783"><ele>381.0</ele></trkpt>
      <trkpt lat="46.32461" lon="6.25758"><ele>382.0</ele></trkpt>
      <trkpt lat="46.32443" lon="6.25746"><ele>382.4</ele></trkpt>
      <trkpt lat="46.32428" lon="6.25742"><ele>382.7</ele></trkpt>
      <trkpt lat="46.32398" lon="6.25734"><ele>383.4</ele></trkpt>
      <trkpt lat="46.32383" lon="6.25755"><ele>383.9</ele></trkpt>
      <trkpt lat="46.32383" lon="6.25780"><ele>384.4</ele></trkpt>
      <trkpt lat="46.32383" lon="6.25803"><ele>384.9</ele></trkpt>
      <trkpt lat="46.32382" lon="6.25815"><ele>385.2</ele></trkpt>
      <trkpt lat="46.32379" lon="6.25837"><ele>385.7</ele></trkpt>
      <trkpt lat="46.32378" lon="6.25841"><ele>385.8</ele></trkpt>
      <trkpt lat="46.32370" lon="6.25853"><ele>386.2</ele></trkpt>
      <trkpt lat="46.32367" lon="6.25862"><ele>386.4</ele></trkpt>
      <trkpt lat="46.32368" lon="6.25887"><ele>387.0</ele></trkpt>
      <trkpt lat="46.32369" lon="6.25915"><ele>387.6</ele></trkpt>
      <trkpt lat="46.32372" lon="6.25949"><ele>388.4</ele></trkpt>
      <trkpt lat="46.32377" lon="6.25973"><ele>389.0</ele></trkpt>
      <trkpt lat="46.32377" lon="6.25974"><ele>389.0</ele></trkpt>
      <trkpt lat="46.32377" lon="6.25973"><ele>389.1</ele></trkpt>
      <trkpt lat="46.32371" lon="6.25988"><ele>389.5</ele></trkpt>
      <trkpt lat="46.32371" lon="6.25988"><ele>389.5</ele></trkpt>
      <trkpt lat="46.32365" lon="6.26005"><ele>389.9</ele></trkpt>
      <trkpt lat="46.32354" lon="6.26037"><ele>390.7</ele></trkpt>
      <trkpt lat="46.32352" lon="6.26042"><ele>390.8</ele></trkpt>
      <trkpt lat="46.32354" lon="6.26037"><ele>391.0</ele></trkpt>
      <trkpt lat="46.32365" lon="6.26005"><ele>391.8</ele></trkpt>
      <trkpt lat="46.32371" lon="6.25988"><ele>392.2</ele></trkpt>
      <trkpt lat="46.32371" lon="6.25988"><ele>392.2</ele></trkpt>
      <trkpt lat="46.32377" lon="6.25973"><ele>392.6</ele></trkpt>
      <trkpt lat="46.32377" lon="6.25974"><ele>392.7</ele></trkpt>
      <trkpt lat="46.32378" lon="6.25976"><ele>392.7</ele></trkpt>
      <trkpt lat="46.32393" lon="6.26012"><ele>394.1</ele></trkpt>
      <trkpt lat="46.32400" lon="6.26031"><ele>395.0</ele></trkpt>
      <trkpt lat="46.32404" lon="6.26041"><ele>395.4</ele></trkpt>
      <trkpt lat="46.32456" lon="6.26159"><ele>401.3</ele></trkpt>
      <trkpt lat="46.32466" lon="6.26179"><ele>402.5</ele></trkpt>
      <trkpt lat="46.32476" lon="6.26193"><ele>403.4</ele></trkpt>
      <trkpt lat="46.32487" lon="6.26205"><ele>404.3</ele></trkpt>
      <trkpt lat="46.32525" lon="6.26238"><ele>407.3</ele></trkpt>
      <trkpt lat="46.32525" lon="6.26264"><ele>408.5</ele></trkpt>
      <trkpt lat="46.32526" lon="6.26300"><ele>410.1</ele></trkpt>
      <trkpt lat="46.32532" lon="6.26340"><ele>411.7</ele></trkpt>
      <trkpt lat="46.32537" lon="6.26347"><ele>412.1</ele></trkpt>
      <trkpt lat="46.32545" lon="6.26353"><ele>412.6</ele></trkpt>
      <trkpt lat="46.32555" lon="6.26359"><ele>413.2</ele></trkpt>
      <trkpt lat="46.32560" lon="6.26360"><ele>413.5</ele></trkpt>
      <trkpt lat="46.32576" lon="6.26377"><ele>414.6</ele></trkpt>
      <trkpt lat="46.32580" lon="6.26382"><ele>414.9</ele></trkpt>
      <trkpt lat="46.32593" lon="6.26405"><ele>415.4</ele></trkpt>
      <trkpt lat="46.32602" lon="6.26422"><ele>415.7</ele></trkpt>
      <trkpt lat="46.32601" lon="6.26426"><ele>415.8</ele></trkpt>
      <trkpt lat="46.32590" lon="6.26452"><ele>416.3</ele></trkpt>
      <trkpt lat="46.32569" lon="6.26503"><ele>417.0</ele></trkpt>
      <trkpt lat="46.32568" lon="6.26507"><ele>417.0</ele></trkpt>
      <trkpt lat="46.32568" lon="6.26515"><ele>417.0</ele></trkpt>
      <trkpt lat="46.32566" lon="6.26530"><ele>417.0</ele></trkpt>
      <trkpt lat="46.32558" lon="6.26550"><ele>417.0</ele></trkpt>
      <trkpt lat="46.32557" lon="6.26554"><ele>417.0</ele></trkpt>
      <trkpt lat="46.32556" lon="6.26558"><ele>417.0</ele></trkpt>
      <trkpt lat="46.32557" lon="6.26565"><ele>417.0</ele></trkpt>
      <trkpt lat="46.32532" lon="6.26572"><ele>417.0</ele></trkpt>
      <trkpt lat="46.32471" lon="6.26589"><ele>417.6</ele></trkpt>
      <trkpt lat="46.32452" lon="6.26594"><ele>417.8</ele></trkpt>
      <trkpt lat="46.32438" lon="6.26600"><ele>417.9</ele></trkpt>
      <trkpt lat="46.32432" lon="6.26604"><ele>418.0</ele></trkpt>
      <trkpt lat="46.32419" lon="6.26615"><ele>418.0</ele></trkpt>
      <trkpt lat="46.32410" lon="6.26627"><ele>418.0</ele></trkpt>
      <trkpt lat="46.32403" lon="6.26639"><ele>418.0</ele></trkpt>
      <trkpt lat="46.32401" lon="6.26642"><ele>418.0</ele></trkpt>
      <trkpt lat="46.32384" lon="6.26684"><ele>418.0</ele></trkpt>
      <trkpt lat="46.32378" lon="6.26698"><ele>418.0</ele></trkpt>
      <trkpt lat="46.32364" lon="6.26734"><ele>418.0</ele></trkpt>
      <trkpt lat="46.32359" lon="6.26747"><ele>418.0</ele></trkpt>
      <trkpt lat="46.32338" lon="6.26799"><ele>418.0</ele></trkpt>
      <trkpt lat="46.32328" lon="6.26821"><ele>418.0</ele></trkpt>
      <trkpt lat="46.32325" lon="6.26827"><ele>418.0</ele></trkpt>
      <trkpt lat="46.32324" lon="6.26829"><ele>418.0</ele></trkpt>
      <trkpt lat="46.32318" lon="6.26842"><ele>418.0</ele></trkpt>
      <trkpt lat="46.32317" lon="6.26849"><ele>418.0</ele></trkpt>
      <trkpt lat="46.32313" lon="6.26850"><ele>418.0</ele></trkpt>
      <trkpt lat="46.32287" lon="6.26862"><ele>418.0</ele></trkpt>
      <trkpt lat="46.32262" lon="6.26872"><ele>418.0</ele></trkpt>
      <trkpt lat="46.32259" lon="6.26873"><ele>418.0</ele></trkpt>
      <trkpt lat="46.32253" lon="6.26876"><ele>418.0</ele></trkpt>
      <trkpt lat="46.32250" lon="6.26880"><ele>418.0</ele></trkpt>
      <trkpt lat="46.32244" lon="6.26884"><ele>418.0</ele></trkpt>
      <trkpt lat="46.32241" lon="6.26885"><ele>418.0</ele></trkpt>
      <trkpt lat="46.32235" lon="6.26885"><ele>418.0</ele></trkpt>
      <trkpt lat="46.32229" lon="6.26889"><ele>418.0</ele></trkpt>
      <trkpt lat="46.32221" lon="6.26892"><ele>418.0</ele></trkpt>
      <trkpt lat="46.32203" lon="6.26899"><ele>418.0</ele></trkpt>
      <trkpt lat="46.32165" lon="6.26914"><ele>418.0</ele></trkpt>
      <trkpt lat="46.32135" lon="6.26926"><ele>418.0</ele></trkpt>
      <trkpt lat="46.32082" lon="6.26943"><ele>418.0</ele></trkpt>
      <trkpt lat="46.32078" lon="6.26944"><ele>417.9</ele></trkpt>
      <trkpt lat="46.32065" lon="6.26946"><ele>417.8</ele></trkpt>
      <trkpt lat="46.32038" lon="6.26947"><ele>417.5</ele></trkpt>
      <trkpt lat="46.32012" lon="6.26944"><ele>417.2</ele></trkpt>
      <trkpt lat="46.31999" lon="6.26941"><ele>417.0</ele></trkpt>
      <trkpt lat="46.31973" lon="6.26932"><ele>416.7</ele></trkpt>
      <trkpt lat="46.31964" lon="6.26925"><ele>416.6</ele></trkpt>
      <trkpt lat="46.31945" lon="6.26914"><ele>416.4</ele></trkpt>
      <trkpt lat="46.31937" lon="6.26910"><ele>416.3</ele></trkpt>
      <trkpt lat="46.31922" lon="6.26898"><ele>416.1</ele></trkpt>
      <trkpt lat="46.31850" lon="6.26815"><ele>415.1</ele></trkpt>
      <trkpt lat="46.31844" lon="6.26808"><ele>415.0</ele></trkpt>
      <trkpt lat="46.31768" lon="6.26732"><ele>415.0</ele></trkpt>
      <trkpt lat="46.31756" lon="6.26720"><ele>414.8</ele></trkpt>
      <trkpt lat="46.31751" lon="6.26711"><ele>414.7</ele></trkpt>
      <trkpt lat="46.31750" lon="6.26709"><ele>414.7</ele></trkpt>
      <trkpt lat="46.31744" lon="6.26695"><ele>414.6</ele></trkpt>
      <trkpt lat="46.31740" lon="6.26690"><ele>414.5</ele></trkpt>
      <trkpt lat="46.31736" lon="6.26686"><ele>414.5</ele></trkpt>
      <trkpt lat="46.31722" lon="6.26682"><ele>414.3</ele></trkpt>
      <trkpt lat="46.31713" lon="6.26676"><ele>414.2</ele></trkpt>
      <trkpt lat="46.31703" lon="6.26663"><ele>414.1</ele></trkpt>
      <trkpt lat="46.31701" lon="6.26653"><ele>414.0</ele></trkpt>
      <trkpt lat="46.31701" lon="6.26642"><ele>413.9</ele></trkpt>
      <trkpt lat="46.31699" lon="6.26638"><ele>413.8</ele></trkpt>
      <trkpt lat="46.31696" lon="6.26633"><ele>413.8</ele></trkpt>
      <trkpt lat="46.31702" lon="6.26623"><ele>413.7</ele></trkpt>
      <trkpt lat="46.31709" lon="6.26614"><ele>413.6</ele></trkpt>
      <trkpt lat="46.31718" lon="6.26607"><ele>413.5</ele></trkpt>
      <trkpt lat="46.31724" lon="6.26603"><ele>413.4</ele></trkpt>
      <trkpt lat="46.31740" lon="6.26597"><ele>413.2</ele></trkpt>
      <trkpt lat="46.31763" lon="6.26590"><ele>413.0</ele></trkpt>
      <trkpt lat="46.31825" lon="6.26580"><ele>412.3</ele></trkpt>
      <trkpt lat="46.31845" lon="6.26571"><ele>412.0</ele></trkpt>
      <trkpt lat="46.31861" lon="6.26560"><ele>411.8</ele></trkpt>
      <trkpt lat="46.32007" lon="6.26427"><ele>410.0</ele></trkpt>
      <trkpt lat="46.32100" lon="6.26341"><ele>409.4</ele></trkpt>
      <trkpt lat="46.32116" lon="6.26328"><ele>409.0</ele></trkpt>
      <trkpt lat="46.32137" lon="6.26316"><ele>408.5</ele></trkpt>
      <trkpt lat="46.32192" lon="6.26291"><ele>406.4</ele></trkpt>
      <trkpt lat="46.32207" lon="6.26284"><ele>405.7</ele></trkpt>
      <trkpt lat="46.32215" lon="6.26278"><ele>405.3</ele></trkpt>
      <trkpt lat="46.32224" lon="6.26270"><ele>404.8</ele></trkpt>
      <trkpt lat="46.32232" lon="6.26260"><ele>404.4</ele></trkpt>
      <trkpt lat="46.32281" lon="6.26178"><ele>400.3</ele></trkpt>
      <trkpt lat="46.32312" lon="6.26116"><ele>397.0</ele></trkpt>
      <trkpt lat="46.32363" lon="6.25966"><ele>389.9</ele></trkpt>
      <trkpt lat="46.32372" lon="6.25949"><ele>389.1</ele></trkpt>
      <trkpt lat="46.32369" lon="6.25915"><ele>387.8</ele></trkpt>
      <trkpt lat="46.32368" lon="6.25887"><ele>386.7</ele></trkpt>
      <trkpt lat="46.32367" lon="6.25862"><ele>385.8</ele></trkpt>
      <trkpt lat="46.32362" lon="6.25745"><ele>382.0</ele></trkpt>
      <trkpt lat="46.32362" lon="6.25722"><ele>381.4</ele></trkpt>
      <trkpt lat="46.32361" lon="6.25681"><ele>380.5</ele></trkpt>
      <trkpt lat="46.32360" lon="6.25676"><ele>380.4</ele></trkpt>
      <trkpt lat="46.32357" lon="6.25652"><ele>379.9</ele></trkpt>
      <trkpt lat="46.32355" lon="6.25644"><ele>379.9</ele></trkpt>
      <trkpt lat="46.32379" lon="6.25633"><ele>379.6</ele></trkpt>
      <trkpt lat="46.32388" lon="6.25641"><ele>379.5</ele></trkpt>
      <trkpt lat="46.32435" lon="6.25660"><ele>379.0</ele></trkpt>
      <trkpt lat="46.32455" lon="6.25686"><ele>379.0</ele></trkpt>
      <trkpt lat="46.32457" lon="6.25690"><ele>379.0</ele></trkpt>
      <trkpt lat="46.32474" lon="6.25722"><ele>379.0</ele></trkpt>
      <trkpt lat="46.32501" lon="6.25763"><ele>379.3</ele></trkpt>
      <trkpt lat="46.32525" lon="6.25779"><ele>379.9</ele></trkpt>
      <trkpt lat="46.32525" lon="6.25786"><ele>380.0</ele></trkpt>
      <trkpt lat="46.32499" lon="6.25783"><ele>380.6</ele></trkpt>
      <trkpt lat="46.32461" lon="6.25758"><ele>381.8</ele></trkpt>
      <trkpt lat="46.32443" lon="6.25746"><ele>382.4</ele></trkpt>
      <trkpt lat="46.32428" lon="6.25742"><ele>382.9</ele></trkpt>
      <trkpt lat="46.32398" lon="6.25734"><ele>383.9</ele></trkpt>
      <trkpt lat="46.32383" lon="6.25755"><ele>384.4</ele></trkpt>
      <trkpt lat="46.32383" lon="6.25780"><ele>384.8</ele></trkpt>
      <trkpt lat="46.32383" lon="6.25803"><ele>385.2</ele></trkpt>
      <trkpt lat="46.32382" lon="6.25815"><ele>385.3</ele></trkpt>
      <trkpt lat="46.32379" lon="6.25837"><ele>385.7</ele></trkpt>
      <trkpt lat="46.32378" lon="6.25841"><ele>385.8</ele></trkpt>
      <trkpt lat="46.32370" lon="6.25853"><ele>386.0</ele></trkpt>
      <trkpt lat="46.32367" lon="6.25862"><ele>386.2</ele></trkpt>
      <trkpt lat="46.32368" lon="6.25887"><ele>386.6</ele></trkpt>
      <trkpt lat="46.32369" lon="6.25915"><ele>387.0</ele></trkpt>
      <trkpt lat="46.32372" lon="6.25949"><ele>387.5</ele></trkpt>
      <trkpt lat="46.32377" lon="6.25973"><ele>387.9</ele></trkpt>
      <trkpt lat="46.32371" lon="6.25988"><ele>388.3</ele></trkpt>
      <trkpt lat="46.32371" lon="6.25988"><ele>388.3</ele></trkpt>
      <trkpt lat="46.32365" lon="6.26005"><ele>388.9</ele></trkpt>
      <trkpt lat="46.32354" lon="6.26037"><ele>390.0</ele></trkpt>
      <trkpt lat="46.32365" lon="6.26005"><ele>391.1</ele></trkpt>
      <trkpt lat="46.32371" lon="6.25988"><ele>391.7</ele></trkpt>
      <trkpt lat="46.32371" lon="6.25988"><ele>391.7</ele></trkpt>
      <trkpt lat="46.32377" lon="6.25973"><ele>392.3</ele></trkpt>
      <trkpt lat="46.32377" lon="6.25974"><ele>392.3</ele></trkpt>
      <trkpt lat="46.32378" lon="6.25976"><ele>392.4</ele></trkpt>
      <trkpt lat="46.32393" lon="6.26012"><ele>394.0</ele></trkpt>
      <trkpt lat="46.32400" lon="6.26031"><ele>394.8</ele></trkpt>
      <trkpt lat="46.32404" lon="6.26041"><ele>395.3</ele></trkpt>
      <trkpt lat="46.32456" lon="6.26159"><ele>400.7</ele></trkpt>
      <trkpt lat="46.32466" lon="6.26179"><ele>401.6</ele></trkpt>
      <trkpt lat="46.32476" lon="6.26193"><ele>402.5</ele></trkpt>
      <trkpt lat="46.32487" lon="6.26205"><ele>403.6</ele></trkpt>
      <trkpt lat="46.32525" lon="6.26238"><ele>407.1</ele></trkpt>
      <trkpt lat="46.32525" lon="6.26264"><ele>408.4</ele></trkpt>
      <trkpt lat="46.32526" lon="6.26300"><ele>410.0</ele></trkpt>
      <trkpt lat="46.32532" lon="6.26340"><ele>411.6</ele></trkpt>
      <trkpt lat="46.32537" lon="6.26347"><ele>411.9</ele></trkpt>
      <trkpt lat="46.32545" lon="6.26353"><ele>412.4</ele></trkpt>
      <trkpt lat="46.32555" lon="6.26359"><ele>413.0</ele></trkpt>
      <trkpt lat="46.32560" lon="6.26360"><ele>413.3</ele></trkpt>
      <trkpt lat="46.32576" lon="6.26377"><ele>414.2</ele></trkpt>
      <trkpt lat="46.32580" lon="6.26382"><ele>414.3</ele></trkpt>
      <trkpt lat="46.32593" lon="6.26405"><ele>414.7</ele></trkpt>
      <trkpt lat="46.32602" lon="6.26422"><ele>415.1</ele></trkpt>
      <trkpt lat="46.32601" lon="6.26426"><ele>415.1</ele></trkpt>
      <trkpt lat="46.32569" lon="6.26503"><ele>416.3</ele></trkpt>
      <trkpt lat="46.32568" lon="6.26507"><ele>416.3</ele></trkpt>
      <trkpt lat="46.32568" lon="6.26515"><ele>416.4</ele></trkpt>
      <trkpt lat="46.32566" lon="6.26530"><ele>416.5</ele></trkpt>
      <trkpt lat="46.32558" lon="6.26550"><ele>416.6</ele></trkpt>
      <trkpt lat="46.32557" lon="6.26554"><ele>416.7</ele></trkpt>
      <trkpt lat="46.32556" lon="6.26558"><ele>416.7</ele></trkpt>
      <trkpt lat="46.32557" lon="6.26565"><ele>416.8</ele></trkpt>
      <trkpt lat="46.32532" lon="6.26572"><ele>417.0</ele></trkpt>
      <trkpt lat="46.32471" lon="6.26589"><ele>417.0</ele></trkpt>
      <trkpt lat="46.32452" lon="6.26594"><ele>417.0</ele></trkpt>
      <trkpt lat="46.32438" lon="6.26600"><ele>417.0</ele></trkpt>
      <trkpt lat="46.32432" lon="6.26604"><ele>417.0</ele></trkpt>
      <trkpt lat="46.32419" lon="6.26615"><ele>417.0</ele></trkpt>
      <trkpt lat="46.32410" lon="6.26627"><ele>417.0</ele></trkpt>
      <trkpt lat="46.32403" lon="6.26639"><ele>417.0</ele></trkpt>
      <trkpt lat="46.32401" lon="6.26642"><ele>417.0</ele></trkpt>
      <trkpt lat="46.32392" lon="6.26634"><ele>417.0</ele></trkpt>
      <trkpt lat="46.32344" lon="6.26596"><ele>416.6</ele></trkpt>
      <trkpt lat="46.32334" lon="6.26589"><ele>416.5</ele></trkpt>
      <trkpt lat="46.32308" lon="6.26569"><ele>416.2</ele></trkpt>
      <trkpt lat="46.32303" lon="6.26565"><ele>416.1</ele></trkpt>
      <trkpt lat="46.32294" lon="6.26558"><ele>416.0</ele></trkpt>
    </trkseg>
  </trk>
</gpx>
